LANDSAT 9               
1 49260U 21088A   24023.17994756  .00000734  00000+0  17278-3 0  9990
2 49260  98.2059  95.1570 0001028  88.5202 271.6114 14.57127013123435
